GLOBALSTAR M080         
1 38041U 11080B   25182.76049708 -.00000094  00000+0  52454-4 0  9992
2 38041  52.0083   5.7053 0000814 121.7927 250.7250 12.62263714624634
GLOBALSTAR M082         
1 38042U 11080C   25182.69686142 -.00000092  00000+0  65884-4 0  9993
2 38042  52.0091 321.3612 0000736 140.9856 232.9834 12.62266930625330
GLOBALSTAR M092         
1 38043U 11080D   25182.90805672 -.00000102  00000+0  10700-4 0  9998
2 38043  52.0096  51.0952 0000801  73.5715 300.4184 12.62264416624029
GLOBALSTAR M086         
1 38045U 11080F   25182.77873814 -.00000084  00000+0  10922-3 0  9992
2 38045  51.9915 315.4509 0001012  36.0475 111.9179 12.62272073625406
GLOBALSTAR M097         
1 39072U 13005A   25182.85196516 -.00000101  00000+0  17931-4 0  9996
2 39072  52.0034 229.7902 0000120 165.2031 194.8840 12.62265462572744
GLOBALSTAR M093         
1 39073U 13005B   25182.82563354 -.00000108  00000+0 -21552-4 0  9994
2 39073  51.9789 223.1503 0000140 202.3186 157.7674 12.62265864572616
